satname,norad_id,inclination_deg,eccentricity,mean_motion_rev_per_day,perigee_km,apogee_km,l1,l2
STARLINK-1008,44714,53.0548,0.0001624,15.06409593,546.0574850998619,548.3068287620335,1 44714U 19074B   25326.35565549  .00005246  00000+0  37070-3 0  9997,2 44714  53.0548 308.4571 0001624  81.5722 278.5451 15.06409593332577
STARLINK-1011,44717,53.0436,0.0003149,16.01929119,266.98353918456723,271.1699544022986,1 44717U 19074E   25326.77159322  .00512570  12887-3  87780-3 0  9990,2 44717  53.0436 275.1992 0003149  82.3603 277.7785 16.01929119333078
STARLINK-1012,44718,53.0552,0.0001326,15.06409782,546.2632804359764,548.0998749227774,1 44718U 19074F   25326.33352974  .00002600  00000+0  19333-3 0  9998,2 44718  53.0552 308.5594 0001326  90.2238 269.8903 15.06409782332564
STARLINK-1017,44723,53.0527,0.0004791,15.16615626,512.7749941007924,519.3810309257815,1 44723U 19074L   25326.17308265  .00049121  00000+0  24815-2 0  9999,2 44723  53.0527 304.4501 0004791  23.1655 336.9553 15.16615626332612
STARLINK-1019,44724,53.0543,0.0001489,15.52283857,409.048869897184,411.07039485430414,1 44724U 19074M   25326.91668980  .00144061  00000+0  22949-2 0  9990,2 44724  53.0543 301.2095 0001489 105.3351  99.4184 15.52283857  5852
STARLINK-1020,44725,53.0542,0.0001631,15.06410826,546.0488590680661,548.3078969443714,1 44725U 19074N   25326.33537666  .00001601  00000+0  12635-3 0  9997,2 44725  53.0542 328.5493 0001631  92.7260 267.3916 15.06410826332289
STARLINK-1031,44736,53.0495,0.0007045,15.52832856,403.6784175862531,413.24073216024954,1 44736U 19074Z   25326.91668980  .00155862  00000+0  24282-2 0  9996,2 44736  53.0495 288.3077 0007045  22.5988  20.7265 15.52832856  5975
STARLINK-1036,44741,53.0551,0.0001411,15.06419409,546.1749144992054,548.1292310755462,1 44741U 19074AE  25326.29850111 -.00002730  00000+0 -16436-3 0  9992,2 44741  53.0551 328.7162 0001411  92.8925 267.2225 15.06419409332285
STARLINK-1039,44744,53.0501,0.0001152,15.14454324,521.840714068795,523.4306520949767,1 44744U 19074AH  25326.45772287  .00034289  00000+0  18506-2 0  9991,2 44744  53.0501 344.8385 0001152 284.3023  75.7841 15.14454324332075
STARLINK-1042,44747,53.0463,0.0003404,15.44296208,431.12814783972226,435.7654740982298,1 44747U 19074AL  25326.08587540  .00021304  00000+0  46321-3 0  9990,2 44747  53.0463 248.8466 0003404 132.8106 227.3186 15.44296208333413
STARLINK-1043,44748,53.0566,0.0001598,15.27980112,480.75505209054336,482.9475043442626,1 44748U 19074AM  25326.91668980  .01917198  00000+0  62813-1 0  9999,2 44748  53.0566 345.1445 0001598  67.7219 245.5513 15.27980112  5786
STARLINK-1046,44751,53.0553,0.0001298,15.06385676,546.3565433419017,548.1543752243324,1 44751U 19074AQ  25326.48465837 -.00003090  00000+0 -18870-3 0  9995,2 44751  53.0553 347.8797 0001298  73.0950 287.0181 15.06385676332038
STARLINK-1047,44752,53.0702,0.0001226,15.2986245,475.3827736336252,477.0634627346044,1 44752U 19074AR  25326.32215735  .00012088  00000+0  42393-3 0  9991,2 44752  53.0702 286.5384 0001226 221.6767 138.4139 15.29862450332895
STARLINK-1048,44753,53.0544,0.0001448,15.06412086,546.171731229073,548.1773014442042,1 44753U 19074AS  25326.17871752  .00003298  00000+0  24009-3 0  9999,2 44753  53.0544 309.2514 0001448  90.7275 269.3880 15.06412086332543
STARLINK-1053,44758,53.0397,0.0005307,15.63883308,372.8675996951715,380.0369207359645,1 44758U 19074AX  25326.10320581  .00064378  00000+0  67257-3 0  9994,2 44758  53.0397 259.3091 0005307 100.9634 259.1977 15.63883308333255
STARLINK-1060,44765,53.0514,0.0007455,15.68995382,356.7478872001111,366.7970922492914,1 44765U 19074BE  25326.91668980  .00195824  00000+0  16287-2 0  9996,2 44765  53.0514 300.9287 0007455  61.9893 343.2907 15.68995382  6013
STARLINK-1063,44768,53.0548,0.0001174,15.06394999,546.4138476052676,548.0399230455423,1 44768U 19074BH  25326.73900605  .00001662  00000+0  13044-3 0  9997,2 44768  53.0548 346.7397 0001174  90.3944 269.7180 15.06394999332081
STARLINK-1067,44771,53.0547,0.0001374,15.06411941,546.2234228714424,548.1264985982525,1 44771U 19074BL  25326.32984400  .00004689  00000+0  33339-3 0  9992,2 44771  53.0547 348.5771 0001374  90.8668 269.2478 15.06411941332015
STARLINK-1068,44772,53.055,0.0001513,15.06413404,546.1226778921682,548.2182759346815,1 44772U 19074BM  25326.45331884  .00003562  00000+0  25783-3 0  9992,2 44772  53.0550 328.0224 0001513  90.3972 269.7190 15.06413404332308
STARLINK-1112,44925,53.0483,0.0003199,15.58614094,389.5015494696918,393.83287020314583,1 44925U 20001M   25326.91668980  .00085412  00000+0  10884-2 0  9994,2 44925  53.0483  55.7650 0003199 296.6102 302.6624 15.58614094  5725
STARLINK-1114,44927,53.0535,0.0001185,15.06393321,546.4113719571187,548.052684416798,1 44927U 20001P   25326.62472971 -.00000503  00000+0 -14888-4 0  9997,2 44927  53.0535 107.2517 0001185  82.2829 277.8295 15.06393321323717
STARLINK-1123,44930,53.0546,0.0001292,15.06399047,546.3197233365054,548.1092341586136,1 44930U 20001S   25326.63947244  .00001066  00000+0  90445-4 0  9998,2 44930  53.0546 107.1853 0001292  92.3942 267.7195 15.06399047323710
STARLINK-1144,44933,53.0421,0.0003452,15.66904644,365.43789459263644,370.0952664246188,1 44933U 20001V   25326.91668980  .00123266  00000+0  11293-2 0  9998,2 44933  53.0421  31.5674 0003452 161.7516 318.5999 15.66904644  5955
STARLINK-1094,44941,53.055,0.0001241,15.06406813,546.3312439884921,548.0501103179622,1 44941U 20001AD  25326.65236436  .00000624  00000+0  60751-4 0  9992,2 44941  53.0550  87.1284 0001241  91.2997 268.8134 15.06406813323999
STARLINK-1096,44942,52.9766,0.0004755,16.15169787,229.55559466564864,235.84249974654176,1 44942U 20001AE  25326.61462277  .01054820  75080-3  77276-3 0  9994,2 44942  52.9766 190.8194 0004755 198.8866 161.1994 16.15169787327553
STARLINK-1122,44949,53.0548,0.0001324,15.06410424,546.2626981446638,548.0965219830096,1 44949U 20001AM  25326.67447170  .00003588  00000+0  25958-3 0  9992,2 44949  53.0548  87.0242 0001324  85.7199 274.3942 15.06410424323993
STARLINK-1080,44961,53.0545,0.000117,15.06410759,546.3683214258645,547.988845272368,1 44961U 20001AZ  25326.60628557  .00004095  00000+0  29356-3 0  9999,2 44961  53.0545  67.3334 0001170  74.4680 285.6438 15.06410759324274
STARLINK-1090,44968,53.054,0.0001418,15.06417507,546.1758952072869,548.1399088415001,1 44968U 20001BG  25326.60997370  .00009242  00000+0  63825-3 0  9996,2 44968  53.0540  67.3183 0001418  87.0029 273.1122 15.06417507324270
STARLINK-1107,44972,53.004,0.0008041,15.81326713,321.29648637971786,332.07918568102286,1 44972U 20001BL  25326.91668980  .00381266  00000+0  18102-2 0  9993,2 44972  53.0040 329.4189 0008041  49.6877  52.8356 15.81326713  5977
STARLINK-1132,45044,53.055,0.0001274,15.06412266,546.2916800530948,548.0562492868921,1 45044U 20006A   25326.37039502  .00010317  00000+0  71028-3 0  9994,2 45044  53.0550  28.3954 0001274  75.1761 284.9369 15.06412266320569
STARLINK-1131,45047,53.0553,0.0001279,15.064198,546.26513013554,548.0366187738264,1 45047U 20006D   25326.54553446  .00006146  00000+0  43089-3 0  9995,2 45047  53.0553  48.1523 0001279  92.6108 267.5028 15.06419800320303
STARLINK-1134,45048,53.0375,0.0006444,15.30067128,471.195274225046,480.02838571711345,1 45048U 20006E   25326.38215109  .00048630  00000+0  16491-2 0  9999,2 45048  53.0375  23.1889 0006444 230.9264 129.1163 15.30067128320642
STARLINK-1156,45054,53.0551,0.0001257,15.06389746,546.3724648855668,548.1135054138322,1 45054U 20006L   25326.51598838 -.00002675  00000+0 -16079-3 0  9998,2 45054  53.0551  47.7397 0001257  79.2798 280.8332 15.06389746320306
STARLINK-1159,45057,53.0547,0.0003266,15.53139401,405.3503488696724,409.7827704348374,1 45057U 20006P   25326.91668980  .00055089  00000+0  86503-3 0  9995,2 45057  53.0547  39.2600 0003266   6.7253 101.5084 15.53139401  5722
STARLINK-1166,45060,53.0542,0.0001287,15.06418095,546.2648147026139,548.0473851465349,1 45060U 20006S   25326.54178079  .00008407  00000+0  58233-3 0  9994,2 45060  53.0542  47.6289 0001287  91.9295 268.1842 15.06418095320314
STARLINK-1169,45061,53.0547,0.0001299,15.06417898,546.257108037069,548.0562993412868,1 45061U 20006T   25326.48280691  .00006858  00000+0  47864-3 0  9998,2 45061  53.0547  47.8948 0001299  97.4166 262.6971 15.06417898320306
STARLINK-1171,45062,53.0542,0.0007021,15.36413139,451.92754365632936,461.5250587038463,1 45062U 20006U   25326.37032310  .00073652  00000+0  20332-2 0  9996,2 45062  53.0542  41.7511 0007021 350.8411   9.2462 15.36413139320384
STARLINK-1133,45064,53.0557,0.0001474,15.06414241,546.1471217242251,548.1887016121846,1 45064U 20006W   25326.48096509  .00008493  00000+0  58816-3 0  9990,2 45064  53.0557  27.8963 0001474  87.4379 272.6778 15.06414241320580
STARLINK-1167,45071,53.0542,0.000133,15.0641244,546.2523651049669,548.0944976797173,1 45071U 20006AD  25326.37406483  .00003535  00000+0  25602-3 0  9991,2 45071  53.0542  28.3778 0001330  97.3909 262.7231 15.06412440320563
STARLINK-1168,45072,53.0554,0.0001822,15.06387963,545.986644626325,548.5102550842521,1 45072U 20006AE  25325.51527580  .00004186  00000+0  29984-3 0  9999,2 45072  53.0554  32.2310 0001822  55.2800 304.8360 15.06387963320430
STARLINK-1172,45074,53.0546,0.0001286,15.06421977,546.2536112547941,548.0347935800555,1 45074U 20006AG  25326.45515960  .00005842  00000+0  41055-3 0  9997,2 45074  53.0546  28.0145 0001286  96.2065 263.9070 15.06421977320576
STARLINK-1153,45080,53.0548,0.0001309,15.06414786,546.2597191542282,548.0727635428138,1 45080U 20006AN  25326.49939580  .00006544  00000+0  45761-3 0  9994,2 45080  53.0548  27.8175 0001309  93.7129 266.4010 15.06414786320587
STARLINK-1151,45081,53.0554,0.0001279,15.06422021,546.258324118503,548.0298110155873,1 45081U 20006AP  25326.48465832  .00008050  00000+0  55835-3 0  9995,2 45081  53.0554  27.9589 0001279  77.8864 282.2268 15.06422021320582
